{
 "type": "FeatureCollection",
 "features": [
  {
   "type": "Feature",
   "id": "hz-000",
   "geometry": {
    "type": "Point",
    "coordinates": [
     139.761822,
     35.683427
    ]
   },
   "properties": {
    "id": "hz-000",
    "baseWeight": 0.833,
    "sink_m": 1.28,
    "flow_m2": 391.54,
    "slope_deg": 0.074,
    "relative_m": 1.017
   }
  },
  {
   "type": "Feature",
   "id": "hz-001",
   "geometry": {
    "type": "Point",
    "coordinates": [
     139.758217,
     35.674433
    ]
   },
   "properties": {
    "id": "hz-001",
    "baseWeight": 0.7063,
    "sink_m": 1.04,
    "flow_m2": 8282.584,
    "slope_deg": 0.233,
    "relative_m": 0.724
   }
  },
  {
   "type": "Feature",
   "id": "hz-002",
   "geometry": {
    "type": "Point",
    "coordinates": [
     139.761264,
     35.680289
    ]
   },
   "properties": {
    "id": "hz-002",
    "baseWeight": 0.7061,
    "sink_m": 1.18,
    "flow_m2": 1008.969,
    "slope_deg": 3.171,
    "relative_m": 0.562
   }
  },
  {
   "type": "Feature",
   "id": "hz-003",
   "geometry": {
    "type": "Point",
    "coordinates": [
     139.760492,
     35.685727
    ]
   },
   "properties": {
    "id": "hz-003",
    "baseWeight": 0.6774,
    "sink_m": 1.07,
    "flow_m2": 301.185,
    "slope_deg": 0.668,
    "relative_m": 0.434
   }
  },
  {
   "type": "Feature",
   "id": "hz-004",
   "geometry": {
    "type": "Point",
    "coordinates": [
     139.760621,
     35.679034
    ]
   },
   "properties": {
    "id": "hz-004",
    "baseWeight": 0.6602,
    "sink_m": 1.24,
    "flow_m2": 210.829,
    "slope_deg": 0.266,
    "relative_m": 0.834
   }
  },
  {
   "type": "Feature",
   "id": "hz-005",
   "geometry": {
    "type": "Point",
    "coordinates": [
     139.773238,
     35.675409
    ]
   },
   "properties": {
    "id": "hz-005",
    "baseWeight": 0.6601,
    "sink_m": 1.62,
    "flow_m2": 180.711,
    "slope_deg": 0.7,
    "relative_m": 2.883
   }
  },
  {
   "type": "Feature",
   "id": "hz-006",
   "geometry": {
    "type": "Point",
    "coordinates": [
     139.759805,
     35.683462
    ]
   },
   "properties": {
    "id": "hz-006",
    "baseWeight": 0.6548,
    "sink_m": 1.08,
    "flow_m2": 90.355,
    "slope_deg": 15.533,
    "relative_m": 1.132
   }
  },
  {
   "type": "Feature",
   "id": "hz-007",
   "geometry": {
    "type": "Point",
    "coordinates": [
     139.760234,
     35.680568
    ]
   },
   "properties": {
    "id": "hz-007",
    "baseWeight": 0.6515,
    "sink_m": 0.56,
    "flow_m2": 557.192,
    "slope_deg": 0.591,
    "relative_m": 0.958
   }
  },
  {
   "type": "Feature",
   "id": "hz-008",
   "geometry": {
    "type": "Point",
    "coordinates": [
     139.760706,
     35.684228
    ]
   },
   "properties": {
    "id": "hz-008",
    "baseWeight": 0.6471,
    "sink_m": 1.15,
    "flow_m2": 75.296,
    "slope_deg": 0.562,
    "relative_m": 1.041
   }
  },
  {
   "type": "Feature",
   "id": "hz-009",
   "geometry": {
    "type": "Point",
    "coordinates": [
     139.761093,
     35.679801
    ]
   },
   "properties": {
    "id": "hz-009",
    "baseWeight": 0.6424,
    "sink_m": 1.17,
    "flow_m2": 1008.969,
    "slope_deg": 2.509,
    "relative_m": 0.515
   }
  },
  {
   "type": "Feature",
   "id": "hz-010",
   "geometry": {
    "type": "Point",
    "coordinates": [
     139.774868,
     35.677919
    ]
   },
   "properties": {
    "id": "hz-010",
    "baseWeight": 0.6376,
    "sink_m": 0.86,
    "flow_m2": 271.066,
    "slope_deg": 0.074,
    "relative_m": 4.31
   }
  },
  {
   "type": "Feature",
   "id": "hz-011",
   "geometry": {
    "type": "Point",
    "coordinates": [
     139.77401,
     35.676594
    ]
   },
   "properties": {
    "id": "hz-011",
    "baseWeight": 0.6319,
    "sink_m": 0.44,
    "flow_m2": 331.303,
    "slope_deg": 0.148,
    "relative_m": 2.112
   }
  },
  {
   "type": "Feature",
   "id": "hz-012",
   "geometry": {
    "type": "Point",
    "coordinates": [
     139.760621,
     35.681753
    ]
   },
   "properties": {
    "id": "hz-012",
    "baseWeight": 0.6318,
    "sink_m": 0.51,
    "flow_m2": 436.718,
    "slope_deg": 0.0,
    "relative_m": 1.046
   }
  },
  {
   "type": "Feature",
   "id": "hz-013",
   "geometry": {
    "type": "Point",
    "coordinates": [
     139.772294,
     35.67255
    ]
   },
   "properties": {
    "id": "hz-013",
    "baseWeight": 0.6306,
    "sink_m": 0.35,
    "flow_m2": 195.77,
    "slope_deg": 0.43,
    "relative_m": 2.752
   }
  },
  {
   "type": "Feature",
   "id": "hz-014",
   "geometry": {
    "type": "Point",
    "coordinates": [
     139.759977,
     35.683984
    ]
   },
   "properties": {
    "id": "hz-014",
    "baseWeight": 0.6303,
    "sink_m": 1.08,
    "flow_m2": 150.592,
    "slope_deg": 13.267,
    "relative_m": 0.779
   }
  },
  {
   "type": "Feature",
   "id": "hz-015",
   "geometry": {
    "type": "Point",
    "coordinates": [
     139.762123,
     35.682834
    ]
   },
   "properties": {
    "id": "hz-015",
    "baseWeight": 0.6252,
    "sink_m": 0.91,
    "flow_m2": 301.185,
    "slope_deg": 6.726,
    "relative_m": 0.4
   }
  },
  {
   "type": "Feature",
   "id": "hz-016",
   "geometry": {
    "type": "Point",
    "coordinates": [
     139.760363,
     35.681056
    ]
   },
   "properties": {
    "id": "hz-016",
    "baseWeight": 0.6121,
    "sink_m": 0.49,
    "flow_m2": 361.422,
    "slope_deg": 1.202,
    "relative_m": 0.554
   }
  },
  {
   "type": "Feature",
   "id": "hz-017",
   "geometry": {
    "type": "Point",
    "coordinates": [
     139.775641,
     35.679278
    ]
   },
   "properties": {
    "id": "hz-017",
    "baseWeight": 0.6096,
    "sink_m": 0.3,
    "flow_m2": 4050.936,
    "slope_deg": 0.148,
    "relative_m": 1.741
   }
  },
  {
   "type": "Feature",
   "id": "hz-018",
   "geometry": {
    "type": "Point",
    "coordinates": [
     139.767315,
     35.686564
    ]
   },
   "properties": {
    "id": "hz-018",
    "baseWeight": 0.6054,
    "sink_m": 0.59,
    "flow_m2": 60.237,
    "slope_deg": 1.465,
    "relative_m": 0.822
   }
  },
  {
   "type": "Feature",
   "id": "hz-019",
   "geometry": {
    "type": "Point",
    "coordinates": [
     139.761479,
     35.681893
    ]
   },
   "properties": {
    "id": "hz-019",
    "baseWeight": 0.598,
    "sink_m": 0.83,
    "flow_m2": 210.829,
    "slope_deg": 0.522,
    "relative_m": 0.465
   }
  },
  {
   "type": "Feature",
   "id": "hz-020",
   "geometry": {
    "type": "Point",
    "coordinates": [
     139.758432,
     35.674991
    ]
   },
   "properties": {
    "id": "hz-020",
    "baseWeight": 0.592,
    "sink_m": 0.77,
    "flow_m2": 195.77,
    "slope_deg": 0.266,
    "relative_m": 0.976
   }
  },
  {
   "type": "Feature",
   "id": "hz-021",
   "geometry": {
    "type": "Point",
    "coordinates": [
     139.760149,
     35.684507
    ]
   },
   "properties": {
    "id": "hz-021",
    "baseWeight": 0.5886,
    "sink_m": 1.12,
    "flow_m2": 120.474,
    "slope_deg": 11.869,
    "relative_m": 0.736
   }
  },
  {
   "type": "Feature",
   "id": "hz-022",
   "geometry": {
    "type": "Point",
    "coordinates": [
     139.769976,
     35.682102
    ]
   },
   "properties": {
    "id": "hz-022",
    "baseWeight": 0.5857,
    "sink_m": 0.54,
    "flow_m2": 331.303,
    "slope_deg": 0.727,
    "relative_m": 0.171
   }
  },
  {
   "type": "Feature",
   "id": "hz-023",
   "geometry": {
    "type": "Point",
    "coordinates": [
     139.759848,
     35.68008
    ]
   },
   "properties": {
    "id": "hz-023",
    "baseWeight": 0.5767,
    "sink_m": 0.47,
    "flow_m2": 421.659,
    "slope_deg": 0.165,
    "relative_m": 0.393
   }
  },
  {
   "type": "Feature",
   "id": "hz-024",
   "geometry": {
    "type": "Point",
    "coordinates": [
     139.764097,
     35.684995
    ]
   },
   "properties": {
    "id": "hz-024",
    "baseWeight": 0.5604,
    "sink_m": 0.56,
    "flow_m2": 301.185,
    "slope_deg": 0.304,
    "relative_m": 0.265
   }
  },
  {
   "type": "Feature",
   "id": "hz-025",
   "geometry": {
    "type": "Point",
    "coordinates": [
     139.761994,
     35.684159
    ]
   },
   "properties": {
    "id": "hz-025",
    "baseWeight": 0.5568,
    "sink_m": 1.12,
    "flow_m2": 933.673,
    "slope_deg": 0.798,
    "relative_m": 0.408
   }
  },
  {
   "type": "Feature",
   "id": "hz-026",
   "geometry": {
    "type": "Point",
    "coordinates": [
     139.774396,
     35.679453
    ]
   },
   "properties": {
    "id": "hz-026",
    "baseWeight": 0.5567,
    "sink_m": 1.57,
    "flow_m2": 21790.725,
    "slope_deg": 18.256,
    "relative_m": 1.045
   }
  },
  {
   "type": "Feature",
   "id": "hz-027",
   "geometry": {
    "type": "Point",
    "coordinates": [
     139.775512,
     35.681231
    ]
   },
   "properties": {
    "id": "hz-027",
    "baseWeight": 0.5565,
    "sink_m": 1.01,
    "flow_m2": 28266.199,
    "slope_deg": 16.307,
    "relative_m": 0.63
   }
  },
  {
   "type": "Feature",
   "id": "hz-028",
   "geometry": {
    "type": "Point",
    "coordinates": [
     139.769933,
     35.681509
    ]
   },
   "properties": {
    "id": "hz-028",
    "baseWeight": 0.5516,
    "sink_m": 0.33,
    "flow_m2": 34832.029,
    "slope_deg": 0.861,
    "relative_m": 0.065
   }
  },
  {
   "type": "Feature",
   "id": "hz-029",
   "geometry": {
    "type": "Point",
    "coordinates": [
     139.772165,
     35.675967
    ]
   },
   "properties": {
    "id": "hz-029",
    "baseWeight": 0.5503,
    "sink_m": 3.66,
    "flow_m2": 466.837,
    "slope_deg": 2.151,
    "relative_m": 3.288
   }
  },
  {
   "type": "Feature",
   "id": "hz-030",
   "geometry": {
    "type": "Point",
    "coordinates": [
     139.770792,
     35.682904
    ]
   },
   "properties": {
    "id": "hz-030",
    "baseWeight": 0.5443,
    "sink_m": 0.55,
    "flow_m2": 286.126,
    "slope_deg": 1.148,
    "relative_m": 0.274
   }
  },
  {
   "type": "Feature",
   "id": "hz-031",
   "geometry": {
    "type": "Point",
    "coordinates": [
     139.766157,
     35.676246
    ]
   },
   "properties": {
    "id": "hz-031",
    "baseWeight": 0.5434,
    "sink_m": 3.95,
    "flow_m2": 1551.102,
    "slope_deg": 32.202,
    "relative_m": 3.79
   }
  },
  {
   "type": "Feature",
   "id": "hz-032",
   "geometry": {
    "type": "Point",
    "coordinates": [
     139.767058,
     35.678512
    ]
   },
   "properties": {
    "id": "hz-032",
    "baseWeight": 0.5432,
    "sink_m": 0.35,
    "flow_m2": 1295.095,
    "slope_deg": 0.209,
    "relative_m": 0.298
   }
  },
  {
   "type": "Feature",
   "id": "hz-033",
   "geometry": {
    "type": "Point",
    "coordinates": [
     139.765556,
     35.675932
    ]
   },
   "properties": {
    "id": "hz-033",
    "baseWeight": 0.5424,
    "sink_m": 1.0,
    "flow_m2": 90.355,
    "slope_deg": 1.987,
    "relative_m": 0.857
   }
  },
  {
   "type": "Feature",
   "id": "hz-034",
   "geometry": {
    "type": "Point",
    "coordinates": [
     139.769161,
     35.671958
    ]
   },
   "properties": {
    "id": "hz-034",
    "baseWeight": 0.5417,
    "sink_m": 4.93,
    "flow_m2": 57767.256,
    "slope_deg": 21.519,
    "relative_m": 4.497
   }
  },
  {
   "type": "Feature",
   "id": "hz-035",
   "geometry": {
    "type": "Point",
    "coordinates": [
     139.772894,
     35.674886
    ]
   },
   "properties": {
    "id": "hz-035",
    "baseWeight": 0.5367,
    "sink_m": 0.55,
    "flow_m2": 5255.676,
    "slope_deg": 1.777,
    "relative_m": 3.296
   }
  },
  {
   "type": "Feature",
   "id": "hz-036",
   "geometry": {
    "type": "Point",
    "coordinates": [
     139.774053,
     35.670458
    ]
   },
   "properties": {
    "id": "hz-036",
    "baseWeight": 0.5357,
    "sink_m": 0.95,
    "flow_m2": 662.607,
    "slope_deg": 6.122,
    "relative_m": 2.885
   }
  },
  {
   "type": "Feature",
   "id": "hz-037",
   "geometry": {
    "type": "Point",
    "coordinates": [
     139.771221,
     35.674328
    ]
   },
   "properties": {
    "id": "hz-037",
    "baseWeight": 0.5234,
    "sink_m": 0.58,
    "flow_m2": 1852.287,
    "slope_deg": 13.337,
    "relative_m": 0.409
   }
  },
  {
   "type": "Feature",
   "id": "hz-038",
   "geometry": {
    "type": "Point",
    "coordinates": [
     139.75929,
     35.674293
    ]
   },
   "properties": {
    "id": "hz-038",
    "baseWeight": 0.5222,
    "sink_m": 0.69,
    "flow_m2": 105.415,
    "slope_deg": 2.869,
    "relative_m": 0.699
   }
  },
  {
   "type": "Feature",
   "id": "hz-039",
   "geometry": {
    "type": "Point",
    "coordinates": [
     139.761565,
     35.681126
    ]
   },
   "properties": {
    "id": "hz-039",
    "baseWeight": 0.5178,
    "sink_m": 0.71,
    "flow_m2": 557.192,
    "slope_deg": 0.842,
    "relative_m": 0.299
   }
  },
  {
   "type": "Feature",
   "id": "hz-040",
   "geometry": {
    "type": "Point",
    "coordinates": [
     139.771392,
     35.675269
    ]
   },
   "properties": {
    "id": "hz-040",
    "baseWeight": 0.5177,
    "sink_m": 2.06,
    "flow_m2": 331.303,
    "slope_deg": 5.366,
    "relative_m": 1.89
   }
  },
  {
   "type": "Feature",
   "id": "hz-041",
   "geometry": {
    "type": "Point",
    "coordinates": [
     139.773281,
     35.677675
    ]
   },
   "properties": {
    "id": "hz-041",
    "baseWeight": 0.5166,
    "sink_m": 0.69,
    "flow_m2": 75.296,
    "slope_deg": 11.263,
    "relative_m": 0.503
   }
  },
  {
   "type": "Feature",
   "id": "hz-042",
   "geometry": {
    "type": "Point",
    "coordinates": [
     139.767702,
     35.670284
    ]
   },
   "properties": {
    "id": "hz-042",
    "baseWeight": 0.5151,
    "sink_m": 0.29,
    "flow_m2": 120.474,
    "slope_deg": 36.517,
    "relative_m": 5.104
   }
  },
  {
   "type": "Feature",
   "id": "hz-043",
   "geometry": {
    "type": "Point",
    "coordinates": [
     139.767702,
     35.684124
    ]
   },
   "properties": {
    "id": "hz-043",
    "baseWeight": 0.5149,
    "sink_m": 0.39,
    "flow_m2": 1024.029,
    "slope_deg": 0.609,
    "relative_m": 0.184
   }
  },
  {
   "type": "Feature",
   "id": "hz-044",
   "geometry": {
    "type": "Point",
    "coordinates": [
     139.761994,
     35.685135
    ]
   },
   "properties": {
    "id": "hz-044",
    "baseWeight": 0.5116,
    "sink_m": 3.33,
    "flow_m2": 135.533,
    "slope_deg": 1.557,
    "relative_m": 3.209
   }
  },
  {
   "type": "Feature",
   "id": "hz-045",
   "geometry": {
    "type": "Point",
    "coordinates": [
     139.770534,
     35.682416
    ]
   },
   "properties": {
    "id": "hz-045",
    "baseWeight": 0.511,
    "sink_m": 0.38,
    "flow_m2": 1039.088,
    "slope_deg": 1.331,
    "relative_m": 0.253
   }
  },
  {
   "type": "Feature",
   "id": "hz-046",
   "geometry": {
    "type": "Point",
    "coordinates": [
     139.768431,
     35.671191
    ]
   },
   "properties": {
    "id": "hz-046",
    "baseWeight": 0.509,
    "sink_m": 5.62,
    "flow_m2": 316.244,
    "slope_deg": 23.545,
    "relative_m": 4.54
   }
  },
  {
   "type": "Feature",
   "id": "hz-047",
   "geometry": {
    "type": "Point",
    "coordinates": [
     139.75826,
     35.675583
    ]
   },
   "properties": {
    "id": "hz-047",
    "baseWeight": 0.5074,
    "sink_m": 2.73,
    "flow_m2": 240.948,
    "slope_deg": 13.898,
    "relative_m": 2.577
   }
  },
  {
   "type": "Feature",
   "id": "hz-048",
   "geometry": {
    "type": "Point",
    "coordinates": [
     139.766328,
     35.677361
    ]
   },
   "properties": {
    "id": "hz-048",
    "baseWeight": 0.506,
    "sink_m": 2.66,
    "flow_m2": 90.355,
    "slope_deg": 4.662,
    "relative_m": 3.009
   }
  },
  {
   "type": "Feature",
   "id": "hz-049",
   "geometry": {
    "type": "Point",
    "coordinates": [
     139.758947,
     35.672725
    ]
   },
   "properties": {
    "id": "hz-049",
    "baseWeight": 0.5001,
    "sink_m": 1.25,
    "flow_m2": 44244.056,
    "slope_deg": 12.592,
    "relative_m": 1.36
   }
  },
  {
   "type": "Feature",
   "id": "hz-050",
   "geometry": {
    "type": "Point",
    "coordinates": [
     139.76783,
     35.684716
    ]
   },
   "properties": {
    "id": "hz-050",
    "baseWeight": 0.4994,
    "sink_m": 0.32,
    "flow_m2": 135.533,
    "slope_deg": 0.266,
    "relative_m": 0.1
   }
  },
  {
   "type": "Feature",
   "id": "hz-051",
   "geometry": {
    "type": "Point",
    "coordinates": [
     139.772465,
     35.671016
    ]
   },
   "properties": {
    "id": "hz-051",
    "baseWeight": 0.4978,
    "sink_m": 1.51,
    "flow_m2": 210.829,
    "slope_deg": 6.755,
    "relative_m": 4.365
   }
  },
  {
   "type": "Feature",
   "id": "hz-052",
   "geometry": {
    "type": "Point",
    "coordinates": [
     139.769676,
     35.672446
    ]
   },
   "properties": {
    "id": "hz-052",
    "baseWeight": 0.4968,
    "sink_m": 0.39,
    "flow_m2": 36744.553,
    "slope_deg": 8.212,
    "relative_m": 0.138
   }
  },
  {
   "type": "Feature",
   "id": "hz-053",
   "geometry": {
    "type": "Point",
    "coordinates": [
     139.769847,
     35.67513
    ]
   },
   "properties": {
    "id": "hz-053",
    "baseWeight": 0.4965,
    "sink_m": 0.46,
    "flow_m2": 90.355,
    "slope_deg": 0.266,
    "relative_m": 0.399
   }
  },
  {
   "type": "Feature",
   "id": "hz-054",
   "geometry": {
    "type": "Point",
    "coordinates": [
     139.762166,
     35.673143
    ]
   },
   "properties": {
    "id": "hz-054",
    "baseWeight": 0.4912,
    "sink_m": 1.28,
    "flow_m2": 45.178,
    "slope_deg": 21.672,
    "relative_m": 1.372
   }
  },
  {
   "type": "Feature",
   "id": "hz-055",
   "geometry": {
    "type": "Point",
    "coordinates": [
     139.763367,
     35.684368
    ]
   },
   "properties": {
    "id": "hz-055",
    "baseWeight": 0.4897,
    "sink_m": 1.26,
    "flow_m2": 496.955,
    "slope_deg": 19.196,
    "relative_m": 1.336
   }
  },
  {
   "type": "Feature",
   "id": "hz-056",
   "geometry": {
    "type": "Point",
    "coordinates": [
     139.76474,
     35.684926
    ]
   },
   "properties": {
    "id": "hz-056",
    "baseWeight": 0.4847,
    "sink_m": 0.32,
    "flow_m2": 256.007,
    "slope_deg": 0.892,
    "relative_m": 0.151
   }
  },
  {
   "type": "Feature",
   "id": "hz-057",
   "geometry": {
    "type": "Point",
    "coordinates": [
     139.76444,
     35.683427
    ]
   },
   "properties": {
    "id": "hz-057",
    "baseWeight": 0.4814,
    "sink_m": 1.0,
    "flow_m2": 2484.775,
    "slope_deg": 11.887,
    "relative_m": 1.033
   }
  },
  {
   "type": "Feature",
   "id": "hz-058",
   "geometry": {
    "type": "Point",
    "coordinates": [
     139.771521,
     35.671051
    ]
   },
   "properties": {
    "id": "hz-058",
    "baseWeight": 0.4807,
    "sink_m": 0.79,
    "flow_m2": 316.244,
    "slope_deg": 19.051,
    "relative_m": 2.927
   }
  },
  {
   "type": "Feature",
   "id": "hz-059",
   "geometry": {
    "type": "Point",
    "coordinates": [
     139.771392,
     35.672202
    ]
   },
   "properties": {
    "id": "hz-059",
    "baseWeight": 0.4789,
    "sink_m": 1.47,
    "flow_m2": 346.363,
    "slope_deg": 17.764,
    "relative_m": 1.452
   }
  },
  {
   "type": "Feature",
   "id": "hz-060",
   "geometry": {
    "type": "Point",
    "coordinates": [
     139.764097,
     35.686146
    ]
   },
   "properties": {
    "id": "hz-060",
    "baseWeight": 0.4788,
    "sink_m": 1.68,
    "flow_m2": 45.178,
    "slope_deg": 12.967,
    "relative_m": 1.888
   }
  },
  {
   "type": "Feature",
   "id": "hz-061",
   "geometry": {
    "type": "Point",
    "coordinates": [
     139.770534,
     35.67126
    ]
   },
   "properties": {
    "id": "hz-061",
    "baseWeight": 0.4744,
    "sink_m": 0.32,
    "flow_m2": 1129.443,
    "slope_deg": 0.861,
    "relative_m": 0.33
   }
  },
  {
   "type": "Feature",
   "id": "hz-062",
   "geometry": {
    "type": "Point",
    "coordinates": [
     139.759934,
     35.679557
    ]
   },
   "properties": {
    "id": "hz-062",
    "baseWeight": 0.4697,
    "sink_m": 0.22,
    "flow_m2": 1024.029,
    "slope_deg": 0.889,
    "relative_m": 0.863
   }
  },
  {
   "type": "Feature",
   "id": "hz-063",
   "geometry": {
    "type": "Point",
    "coordinates": [
     139.764397,
     35.679418
    ]
   },
   "properties": {
    "id": "hz-063",
    "baseWeight": 0.4652,
    "sink_m": 1.03,
    "flow_m2": 481.896,
    "slope_deg": 20.202,
    "relative_m": 0.814
   }
  },
  {
   "type": "Feature",
   "id": "hz-064",
   "geometry": {
    "type": "Point",
    "coordinates": [
     139.766328,
     35.670772
    ]
   },
   "properties": {
    "id": "hz-064",
    "baseWeight": 0.4632,
    "sink_m": 0.86,
    "flow_m2": 90.355,
    "slope_deg": 15.553,
    "relative_m": 0.813
   }
  },
  {
   "type": "Feature",
   "id": "hz-065",
   "geometry": {
    "type": "Point",
    "coordinates": [
     139.767401,
     35.683671
    ]
   },
   "properties": {
    "id": "hz-065",
    "baseWeight": 0.4631,
    "sink_m": 0.32,
    "flow_m2": 406.6,
    "slope_deg": 0.376,
    "relative_m": 0.164
   }
  },
  {
   "type": "Feature",
   "id": "hz-066",
   "geometry": {
    "type": "Point",
    "coordinates": [
     139.770534,
     35.686041
    ]
   },
   "properties": {
    "id": "hz-066",
    "baseWeight": 0.4626,
    "sink_m": 0.17,
    "flow_m2": 240.948,
    "slope_deg": 0.398,
    "relative_m": 1.586
   }
  },
  {
   "type": "Feature",
   "id": "hz-067",
   "geometry": {
    "type": "Point",
    "coordinates": [
     139.764354,
     35.678058
    ]
   },
   "properties": {
    "id": "hz-067",
    "baseWeight": 0.4618,
    "sink_m": 0.54,
    "flow_m2": 75.296,
    "slope_deg": 1.634,
    "relative_m": 0.438
   }
  },
  {
   "type": "Feature",
   "id": "hz-068",
   "geometry": {
    "type": "Point",
    "coordinates": [
     139.765041,
     35.679069
    ]
   },
   "properties": {
    "id": "hz-068",
    "baseWeight": 0.4533,
    "sink_m": 1.88,
    "flow_m2": 45.178,
    "slope_deg": 9.335,
    "relative_m": 1.83
   }
  },
  {
   "type": "Feature",
   "id": "hz-069",
   "geometry": {
    "type": "Point",
    "coordinates": [
     139.772465,
     35.673178
    ]
   },
   "properties": {
    "id": "hz-069",
    "baseWeight": 0.4507,
    "sink_m": 0.2,
    "flow_m2": 90.355,
    "slope_deg": 1.107,
    "relative_m": 2.802
   }
  },
  {
   "type": "Feature",
   "id": "hz-070",
   "geometry": {
    "type": "Point",
    "coordinates": [
     139.760621,
     35.674921
    ]
   },
   "properties": {
    "id": "hz-070",
    "baseWeight": 0.4467,
    "sink_m": 1.43,
    "flow_m2": 45.178,
    "slope_deg": 4.961,
    "relative_m": 1.649
   }
  },
  {
   "type": "Feature",
   "id": "hz-071",
   "geometry": {
    "type": "Point",
    "coordinates": [
     139.773238,
     35.684333
    ]
   },
   "properties": {
    "id": "hz-071",
    "baseWeight": 0.4417,
    "sink_m": 0.01,
    "flow_m2": 96288.799,
    "slope_deg": 0.074,
    "relative_m": 0.967
   }
  },
  {
   "type": "Feature",
   "id": "hz-072",
   "geometry": {
    "type": "Point",
    "coordinates": [
     139.759891,
     35.674014
    ]
   },
   "properties": {
    "id": "hz-072",
    "baseWeight": 0.4404,
    "sink_m": 0.32,
    "flow_m2": 90.355,
    "slope_deg": 3.437,
    "relative_m": 0.398
   }
  },
  {
   "type": "Feature",
   "id": "hz-073",
   "geometry": {
    "type": "Point",
    "coordinates": [
     139.766328,
     35.674921
    ]
   },
   "properties": {
    "id": "hz-073",
    "baseWeight": 0.4392,
    "sink_m": 0.24,
    "flow_m2": 8312.702,
    "slope_deg": 0.753,
    "relative_m": 0.134
   }
  },
  {
   "type": "Feature",
   "id": "hz-074",
   "geometry": {
    "type": "Point",
    "coordinates": [
     139.770577,
     35.681614
    ]
   },
   "properties": {
    "id": "hz-074",
    "baseWeight": 0.4374,
    "sink_m": 0.4,
    "flow_m2": 210.829,
    "slope_deg": 0.209,
    "relative_m": 0.311
   }
  },
  {
   "type": "Feature",
   "id": "hz-075",
   "geometry": {
    "type": "Point",
    "coordinates": [
     139.765556,
     35.683462
    ]
   },
   "properties": {
    "id": "hz-075",
    "baseWeight": 0.4373,
    "sink_m": 0.89,
    "flow_m2": 662.607,
    "slope_deg": 19.171,
    "relative_m": 0.832
   }
  },
  {
   "type": "Feature",
   "id": "hz-076",
   "geometry": {
    "type": "Point",
    "coordinates": [
     139.761522,
     35.682625
    ]
   },
   "properties": {
    "id": "hz-076",
    "baseWeight": 0.4317,
    "sink_m": 0.2,
    "flow_m2": 13779.207,
    "slope_deg": 0.825,
    "relative_m": 0.264
   }
  },
  {
   "type": "Feature",
   "id": "hz-077",
   "geometry": {
    "type": "Point",
    "coordinates": [
     139.773538,
     35.678128
    ]
   },
   "properties": {
    "id": "hz-077",
    "baseWeight": 0.43,
    "sink_m": 2.7,
    "flow_m2": 45.178,
    "slope_deg": 33.959,
    "relative_m": 2.311
   }
  },
  {
   "type": "Feature",
   "id": "hz-078",
   "geometry": {
    "type": "Point",
    "coordinates": [
     139.762895,
     35.676315
    ]
   },
   "properties": {
    "id": "hz-078",
    "baseWeight": 0.4241,
    "sink_m": 0.26,
    "flow_m2": 316.244,
    "slope_deg": 0.165,
    "relative_m": 0.183
   }
  },
  {
   "type": "Feature",
   "id": "hz-079",
   "geometry": {
    "type": "Point",
    "coordinates": [
     139.760921,
     35.671992
    ]
   },
   "properties": {
    "id": "hz-079",
    "baseWeight": 0.4153,
    "sink_m": 0.12,
    "flow_m2": 3358.211,
    "slope_deg": 0.522,
    "relative_m": 0.205
   }
  },
  {
   "type": "Feature",
   "id": "hz-080",
   "geometry": {
    "type": "Point",
    "coordinates": [
     139.764826,
     35.673108
    ]
   },
   "properties": {
    "id": "hz-080",
    "baseWeight": 0.4148,
    "sink_m": 1.83,
    "flow_m2": 180.711,
    "slope_deg": 7.348,
    "relative_m": 1.874
   }
  },
  {
   "type": "Feature",
   "id": "hz-081",
   "geometry": {
    "type": "Point",
    "coordinates": [
     139.763582,
     35.682764
    ]
   },
   "properties": {
    "id": "hz-081",
    "baseWeight": 0.4148,
    "sink_m": 0.08,
    "flow_m2": 527.074,
    "slope_deg": 7.064,
    "relative_m": 0.068
   }
  },
  {
   "type": "Feature",
   "id": "hz-082",
   "geometry": {
    "type": "Point",
    "coordinates": [
     139.769804,
     35.670668
    ]
   },
   "properties": {
    "id": "hz-082",
    "baseWeight": 0.4142,
    "sink_m": 0.25,
    "flow_m2": 210.829,
    "slope_deg": 0.304,
    "relative_m": 0.238
   }
  },
  {
   "type": "Feature",
   "id": "hz-083",
   "geometry": {
    "type": "Point",
    "coordinates": [
     139.76414,
     35.684472
    ]
   },
   "properties": {
    "id": "hz-083",
    "baseWeight": 0.4133,
    "sink_m": 0.23,
    "flow_m2": 512.014,
    "slope_deg": 0.668,
    "relative_m": 0.331
   }
  },
  {
   "type": "Feature",
   "id": "hz-084",
   "geometry": {
    "type": "Point",
    "coordinates": [
     139.76886,
     35.675409
    ]
   },
   "properties": {
    "id": "hz-084",
    "baseWeight": 0.4127,
    "sink_m": 0.19,
    "flow_m2": 451.777,
    "slope_deg": 0.443,
    "relative_m": 0.187
   }
  },
  {
   "type": "Feature",
   "id": "hz-085",
   "geometry": {
    "type": "Point",
    "coordinates": [
     139.766285,
     35.681475
    ]
   },
   "properties": {
    "id": "hz-085",
    "baseWeight": 0.4115,
    "sink_m": 0.26,
    "flow_m2": 105.415,
    "slope_deg": 0.313,
    "relative_m": 0.221
   }
  },
  {
   "type": "Feature",
   "id": "hz-086",
   "geometry": {
    "type": "Point",
    "coordinates": [
     139.769976,
     35.68266
    ]
   },
   "properties": {
    "id": "hz-086",
    "baseWeight": 0.4112,
    "sink_m": 0.31,
    "flow_m2": 105.415,
    "slope_deg": 1.211,
    "relative_m": 0.187
   }
  },
  {
   "type": "Feature",
   "id": "hz-087",
   "geometry": {
    "type": "Point",
    "coordinates": [
     139.76547,
     35.68266
    ]
   },
   "properties": {
    "id": "hz-087",
    "baseWeight": 0.4034,
    "sink_m": 0.28,
    "flow_m2": 271.066,
    "slope_deg": 2.475,
    "relative_m": 0.252
   }
  },
  {
   "type": "Feature",
   "id": "hz-088",
   "geometry": {
    "type": "Point",
    "coordinates": [
     139.771993,
     35.67391
    ]
   },
   "properties": {
    "id": "hz-088",
    "baseWeight": 0.4024,
    "sink_m": 0.86,
    "flow_m2": 240.948,
    "slope_deg": 1.291,
    "relative_m": 1.933
   }
  },
  {
   "type": "Feature",
   "id": "hz-089",
   "geometry": {
    "type": "Point",
    "coordinates": [
     139.774826,
     35.684159
    ]
   },
   "properties": {
    "id": "hz-089",
    "baseWeight": 0.4021,
    "sink_m": 0.02,
    "flow_m2": 75.296,
    "slope_deg": 0.104,
    "relative_m": 0.784
   }
  },
  {
   "type": "Feature",
   "id": "hz-090",
   "geometry": {
    "type": "Point",
    "coordinates": [
     139.767272,
     35.684507
    ]
   },
   "properties": {
    "id": "hz-090",
    "baseWeight": 0.4002,
    "sink_m": 0.25,
    "flow_m2": 1114.384,
    "slope_deg": 1.146,
    "relative_m": 0.081
   }
  },
  {
   "type": "Feature",
   "id": "hz-091",
   "geometry": {
    "type": "Point",
    "coordinates": [
     139.775813,
     35.670807
    ]
   },
   "properties": {
    "id": "hz-091",
    "baseWeight": 0.396,
    "sink_m": 0.24,
    "flow_m2": 271.066,
    "slope_deg": 0.631,
    "relative_m": 0.401
   }
  },
  {
   "type": "Feature",
   "id": "hz-092",
   "geometry": {
    "type": "Point",
    "coordinates": [
     139.771607,
     35.684577
    ]
   },
   "properties": {
    "id": "hz-092",
    "baseWeight": 0.395,
    "sink_m": 0.0,
    "flow_m2": 240.948,
    "slope_deg": 0.104,
    "relative_m": 1.208
   }
  },
  {
   "type": "Feature",
   "id": "hz-093",
   "geometry": {
    "type": "Point",
    "coordinates": [
     139.76989,
     35.680045
    ]
   },
   "properties": {
    "id": "hz-093",
    "baseWeight": 0.3938,
    "sink_m": 1.7,
    "flow_m2": 45.178,
    "slope_deg": 12.545,
    "relative_m": 1.729
   }
  },
  {
   "type": "Feature",
   "id": "hz-094",
   "geometry": {
    "type": "Point",
    "coordinates": [
     139.763496,
     35.683357
    ]
   },
   "properties": {
    "id": "hz-094",
    "baseWeight": 0.3926,
    "sink_m": 0.1,
    "flow_m2": 75793.17,
    "slope_deg": 0.825,
    "relative_m": 0.423
   }
  },
  {
   "type": "Feature",
   "id": "hz-095",
   "geometry": {
    "type": "Point",
    "coordinates": [
     139.77062,
     35.685518
    ]
   },
   "properties": {
    "id": "hz-095",
    "baseWeight": 0.3918,
    "sink_m": 0.02,
    "flow_m2": 28989.043,
    "slope_deg": 1.004,
    "relative_m": 1.6
   }
  },
  {
   "type": "Feature",
   "id": "hz-096",
   "geometry": {
    "type": "Point",
    "coordinates": [
     139.76238,
     35.684751
    ]
   },
   "properties": {
    "id": "hz-096",
    "baseWeight": 0.3884,
    "sink_m": 0.65,
    "flow_m2": 120.474,
    "slope_deg": 17.885,
    "relative_m": 0.626
   }
  },
  {
   "type": "Feature",
   "id": "hz-097",
   "geometry": {
    "type": "Point",
    "coordinates": [
     139.757531,
     35.679941
    ]
   },
   "properties": {
    "id": "hz-097",
    "baseWeight": 0.3873,
    "sink_m": 0.31,
    "flow_m2": 286.126,
    "slope_deg": 1.41,
    "relative_m": 0.49
   }
  },
  {
   "type": "Feature",
   "id": "hz-098",
   "geometry": {
    "type": "Point",
    "coordinates": [
     139.757445,
     35.672167
    ]
   },
   "properties": {
    "id": "hz-098",
    "baseWeight": 0.3855,
    "sink_m": 0.89,
    "flow_m2": 105.415,
    "slope_deg": 2.402,
    "relative_m": 0.954
   }
  },
  {
   "type": "Feature",
   "id": "hz-099",
   "geometry": {
    "type": "Point",
    "coordinates": [
     139.759762,
     35.679069
    ]
   },
   "properties": {
    "id": "hz-099",
    "baseWeight": 0.3845,
    "sink_m": 0.12,
    "flow_m2": 4096.114,
    "slope_deg": 0.369,
    "relative_m": 0.259
   }
  },
  {
   "type": "Feature",
   "id": "hz-100",
   "geometry": {
    "type": "Point",
    "coordinates": [
     139.773238,
     35.670702
    ]
   },
   "properties": {
    "id": "hz-100",
    "baseWeight": 0.3824,
    "sink_m": 0.03,
    "flow_m2": 1596.28,
    "slope_deg": 0.495,
    "relative_m": 2.537
   }
  },
  {
   "type": "Feature",
   "id": "hz-101",
   "geometry": {
    "type": "Point",
    "coordinates": [
     139.764483,
     35.680777
    ]
   },
   "properties": {
    "id": "hz-101",
    "baseWeight": 0.3802,
    "sink_m": 0.17,
    "flow_m2": 6460.415,
    "slope_deg": 0.738,
    "relative_m": 0.136
   }
  },
  {
   "type": "Feature",
   "id": "hz-102",
   "geometry": {
    "type": "Point",
    "coordinates": [
     139.76826,
     35.675513
    ]
   },
   "properties": {
    "id": "hz-102",
    "baseWeight": 0.38,
    "sink_m": 0.28,
    "flow_m2": 75.296,
    "slope_deg": 0.631,
    "relative_m": 0.31
   }
  },
  {
   "type": "Feature",
   "id": "hz-103",
   "geometry": {
    "type": "Point",
    "coordinates": [
     139.763582,
     35.678198
    ]
   },
   "properties": {
    "id": "hz-103",
    "baseWeight": 0.3751,
    "sink_m": 0.11,
    "flow_m2": 440467.797,
    "slope_deg": 2.804,
    "relative_m": 0.138
   }
  },
  {
   "type": "Feature",
   "id": "hz-104",
   "geometry": {
    "type": "Point",
    "coordinates": [
     139.765599,
     35.674851
    ]
   },
   "properties": {
    "id": "hz-104",
    "baseWeight": 0.3744,
    "sink_m": 0.32,
    "flow_m2": 150.592,
    "slope_deg": 0.398,
    "relative_m": 0.206
   }
  },
  {
   "type": "Feature",
   "id": "hz-105",
   "geometry": {
    "type": "Point",
    "coordinates": [
     139.770834,
     35.679627
    ]
   },
   "properties": {
    "id": "hz-105",
    "baseWeight": 0.3732,
    "sink_m": 0.25,
    "flow_m2": 60.237,
    "slope_deg": 11.508,
    "relative_m": 0.278
   }
  },
  {
   "type": "Feature",
   "id": "hz-106",
   "geometry": {
    "type": "Point",
    "coordinates": [
     139.767616,
     35.677013
    ]
   },
   "properties": {
    "id": "hz-106",
    "baseWeight": 0.3692,
    "sink_m": 0.23,
    "flow_m2": 135.533,
    "slope_deg": 1.19,
    "relative_m": 0.214
   }
  },
  {
   "type": "Feature",
   "id": "hz-107",
   "geometry": {
    "type": "Point",
    "coordinates": [
     139.760749,
     35.671016
    ]
   },
   "properties": {
    "id": "hz-107",
    "baseWeight": 0.3657,
    "sink_m": 0.19,
    "flow_m2": 4487.654,
    "slope_deg": 0.449,
    "relative_m": 0.271
   }
  },
  {
   "type": "Feature",
   "id": "hz-108",
   "geometry": {
    "type": "Point",
    "coordinates": [
     139.765899,
     35.682276
    ]
   },
   "properties": {
    "id": "hz-108",
    "baseWeight": 0.3646,
    "sink_m": 0.32,
    "flow_m2": 331.303,
    "slope_deg": 4.78,
    "relative_m": 0.481
   }
  },
  {
   "type": "Feature",
   "id": "hz-109",
   "geometry": {
    "type": "Point",
    "coordinates": [
     139.768689,
     35.684194
    ]
   },
   "properties": {
    "id": "hz-109",
    "baseWeight": 0.3644,
    "sink_m": 0.13,
    "flow_m2": 40840.667,
    "slope_deg": 0.467,
    "relative_m": 0.146
   }
  },
  {
   "type": "Feature",
   "id": "hz-110",
   "geometry": {
    "type": "Point",
    "coordinates": [
     139.768603,
     35.685239
    ]
   },
   "properties": {
    "id": "hz-110",
    "baseWeight": 0.3638,
    "sink_m": 0.09,
    "flow_m2": 31865.358,
    "slope_deg": 0.104,
    "relative_m": 0.104
   }
  },
  {
   "type": "Feature",
   "id": "hz-111",
   "geometry": {
    "type": "Point",
    "coordinates": [
     139.762595,
     35.680708
    ]
   },
   "properties": {
    "id": "hz-111",
    "baseWeight": 0.3629,
    "sink_m": 0.12,
    "flow_m2": 9803.567,
    "slope_deg": 0.985,
    "relative_m": 0.205
   }
  },
  {
   "type": "Feature",
   "id": "hz-112",
   "geometry": {
    "type": "Point",
    "coordinates": [
     139.767873,
     35.678756
    ]
   },
   "properties": {
    "id": "hz-112",
    "baseWeight": 0.3627,
    "sink_m": 0.1,
    "flow_m2": 301.185,
    "slope_deg": 0.864,
    "relative_m": 0.05
   }
  },
  {
   "type": "Feature",
   "id": "hz-113",
   "geometry": {
    "type": "Point",
    "coordinates": [
     139.774954,
     35.676211
    ]
   },
   "properties": {
    "id": "hz-113",
    "baseWeight": 0.357,
    "sink_m": 0.23,
    "flow_m2": 3162.441,
    "slope_deg": 2.015,
    "relative_m": 0.233
   }
  },
  {
   "type": "Feature",
   "id": "hz-114",
   "geometry": {
    "type": "Point",
    "coordinates": [
     139.769719,
     35.681021
    ]
   },
   "properties": {
    "id": "hz-114",
    "baseWeight": 0.3558,
    "sink_m": 0.38,
    "flow_m2": 90.355,
    "slope_deg": 0.537,
    "relative_m": 0.28
   }
  },
  {
   "type": "Feature",
   "id": "hz-115",
   "geometry": {
    "type": "Point",
    "coordinates": [
     139.762852,
     35.683496
    ]
   },
   "properties": {
    "id": "hz-115",
    "baseWeight": 0.3525,
    "sink_m": 0.08,
    "flow_m2": 6611.008,
    "slope_deg": 0.738,
    "relative_m": 0.21
   }
  },
  {
   "type": "Feature",
   "id": "hz-116",
   "geometry": {
    "type": "Point",
    "coordinates": [
     139.765427,
     35.67398
    ]
   },
   "properties": {
    "id": "hz-116",
    "baseWeight": 0.3518,
    "sink_m": 0.15,
    "flow_m2": 421.659,
    "slope_deg": 0.221,
    "relative_m": 0.121
   }
  },
  {
   "type": "Feature",
   "id": "hz-117",
   "geometry": {
    "type": "Point",
    "coordinates": [
     139.76208,
     35.674398
    ]
   },
   "properties": {
    "id": "hz-117",
    "baseWeight": 0.3515,
    "sink_m": 0.16,
    "flow_m2": 120.474,
    "slope_deg": 1.253,
    "relative_m": 0.242
   }
  },
  {
   "type": "Feature",
   "id": "hz-118",
   "geometry": {
    "type": "Point",
    "coordinates": [
     139.768517,
     35.679104
    ]
   },
   "properties": {
    "id": "hz-118",
    "baseWeight": 0.3507,
    "sink_m": 0.12,
    "flow_m2": 210.829,
    "slope_deg": 0.934,
    "relative_m": 0.2
   }
  },
  {
   "type": "Feature",
   "id": "hz-119",
   "geometry": {
    "type": "Point",
    "coordinates": [
     139.76105,
     35.684891
    ]
   },
   "properties": {
    "id": "hz-119",
    "baseWeight": 0.3494,
    "sink_m": 1.35,
    "flow_m2": 15.059,
    "slope_deg": 8.275,
    "relative_m": 1.402
   }
  },
  {
   "type": "Feature",
   "id": "hz-120",
   "geometry": {
    "type": "Point",
    "coordinates": [
     139.76002,
     35.681649
    ]
   },
   "properties": {
    "id": "hz-120",
    "baseWeight": 0.3492,
    "sink_m": 0.17,
    "flow_m2": 436.718,
    "slope_deg": 1.983,
    "relative_m": 0.185
   }
  },
  {
   "type": "Feature",
   "id": "hz-121",
   "geometry": {
    "type": "Point",
    "coordinates": [
     139.759376,
     35.68259
    ]
   },
   "properties": {
    "id": "hz-121",
    "baseWeight": 0.3491,
    "sink_m": 0.17,
    "flow_m2": 225.889,
    "slope_deg": 0.795,
    "relative_m": 0.225
   }
  },
  {
   "type": "Feature",
   "id": "hz-122",
   "geometry": {
    "type": "Point",
    "coordinates": [
     139.771221,
     35.683915
    ]
   },
   "properties": {
    "id": "hz-122",
    "baseWeight": 0.3456,
    "sink_m": 0.18,
    "flow_m2": 361.422,
    "slope_deg": 1.379,
    "relative_m": 0.332
   }
  },
  {
   "type": "Feature",
   "id": "hz-123",
   "geometry": {
    "type": "Point",
    "coordinates": [
     139.771349,
     35.672794
    ]
   },
   "properties": {
    "id": "hz-123",
    "baseWeight": 0.345,
    "sink_m": 0.04,
    "flow_m2": 5602.038,
    "slope_deg": 1.493,
    "relative_m": 0.218
   }
  },
  {
   "type": "Feature",
   "id": "hz-124",
   "geometry": {
    "type": "Point",
    "coordinates": [
     139.759505,
     35.686634
    ]
   },
   "properties": {
    "id": "hz-124",
    "baseWeight": 0.3435,
    "sink_m": 0.03,
    "flow_m2": 993.91,
    "slope_deg": 0.376,
    "relative_m": 0.753
   }
  },
  {
   "type": "Feature",
   "id": "hz-125",
   "geometry": {
    "type": "Point",
    "coordinates": [
     139.766972,
     35.675339
    ]
   },
   "properties": {
    "id": "hz-125",
    "baseWeight": 0.3419,
    "sink_m": 0.31,
    "flow_m2": 75.296,
    "slope_deg": 0.681,
    "relative_m": 0.371
   }
  },
  {
   "type": "Feature",
   "id": "hz-126",
   "geometry": {
    "type": "Point",
    "coordinates": [
     139.771092,
     35.684856
    ]
   },
   "properties": {
    "id": "hz-126",
    "baseWeight": 0.3404,
    "sink_m": 0.02,
    "flow_m2": 60.237,
    "slope_deg": 0.221,
    "relative_m": 1.135
   }
  },
  {
   "type": "Feature",
   "id": "hz-127",
   "geometry": {
    "type": "Point",
    "coordinates": [
     139.762595,
     35.674886
    ]
   },
   "properties": {
    "id": "hz-127",
    "baseWeight": 0.3396,
    "sink_m": 0.0,
    "flow_m2": 828.258,
    "slope_deg": 0.43,
    "relative_m": 0.114
   }
  },
  {
   "type": "Feature",
   "id": "hz-128",
   "geometry": {
    "type": "Point",
    "coordinates": [
     139.767272,
     35.681091
    ]
   },
   "properties": {
    "id": "hz-128",
    "baseWeight": 0.3388,
    "sink_m": 0.12,
    "flow_m2": 142294.787,
    "slope_deg": 0.104,
    "relative_m": 0.055
   }
  },
  {
   "type": "Feature",
   "id": "hz-129",
   "geometry": {
    "type": "Point",
    "coordinates": [
     139.758775,
     35.674014
    ]
   },
   "properties": {
    "id": "hz-129",
    "baseWeight": 0.3387,
    "sink_m": 0.12,
    "flow_m2": 54258.452,
    "slope_deg": 1.148,
    "relative_m": 0.08
   }
  },
  {
   "type": "Feature",
   "id": "hz-130",
   "geometry": {
    "type": "Point",
    "coordinates": [
     139.769762,
     35.686982
    ]
   },
   "properties": {
    "id": "hz-130",
    "baseWeight": 0.3336,
    "sink_m": 0.0,
    "flow_m2": 1792.05,
    "slope_deg": 0.945,
    "relative_m": 2.447
   }
  },
  {
   "type": "Feature",
   "id": "hz-131",
   "geometry": {
    "type": "Point",
    "coordinates": [
     139.76311,
     35.676803
    ]
   },
   "properties": {
    "id": "hz-131",
    "baseWeight": 0.3285,
    "sink_m": 0.23,
    "flow_m2": 210.829,
    "slope_deg": 0.233,
    "relative_m": 0.165
   }
  },
  {
   "type": "Feature",
   "id": "hz-132",
   "geometry": {
    "type": "Point",
    "coordinates": [
     139.766285,
     35.685727
    ]
   },
   "properties": {
    "id": "hz-132",
    "baseWeight": 0.3285,
    "sink_m": 0.7,
    "flow_m2": 1144.502,
    "slope_deg": 6.172,
    "relative_m": 0.765
   }
  },
  {
   "type": "Feature",
   "id": "hz-133",
   "geometry": {
    "type": "Point",
    "coordinates": [
     139.768517,
     35.684682
    ]
   },
   "properties": {
    "id": "hz-133",
    "baseWeight": 0.3251,
    "sink_m": 0.11,
    "flow_m2": 43581.449,
    "slope_deg": 0.562,
    "relative_m": 0.09
   }
  },
  {
   "type": "Feature",
   "id": "hz-134",
   "geometry": {
    "type": "Point",
    "coordinates": [
     139.769032,
     35.686006
    ]
   },
   "properties": {
    "id": "hz-134",
    "baseWeight": 0.3246,
    "sink_m": 0.04,
    "flow_m2": 8207.287,
    "slope_deg": 0.66,
    "relative_m": 0.129
   }
  },
  {
   "type": "Feature",
   "id": "hz-135",
   "geometry": {
    "type": "Point",
    "coordinates": [
     139.761565,
     35.671958
    ]
   },
   "properties": {
    "id": "hz-135",
    "baseWeight": 0.3243,
    "sink_m": 0.24,
    "flow_m2": 150.592,
    "slope_deg": 0.495,
    "relative_m": 0.284
   }
  },
  {
   "type": "Feature",
   "id": "hz-136",
   "geometry": {
    "type": "Point",
    "coordinates": [
     139.763668,
     35.679348
    ]
   },
   "properties": {
    "id": "hz-136",
    "baseWeight": 0.3241,
    "sink_m": 0.2,
    "flow_m2": 195.77,
    "slope_deg": 0.595,
    "relative_m": 0.267
   }
  },
  {
   "type": "Feature",
   "id": "hz-137",
   "geometry": {
    "type": "Point",
    "coordinates": [
     139.762595,
     35.686285
    ]
   },
   "properties": {
    "id": "hz-137",
    "baseWeight": 0.3239,
    "sink_m": 1.25,
    "flow_m2": 105.415,
    "slope_deg": 10.611,
    "relative_m": 1.53
   }
  },
  {
   "type": "Feature",
   "id": "hz-138",
   "geometry": {
    "type": "Point",
    "coordinates": [
     139.758046,
     35.67384
    ]
   },
   "properties": {
    "id": "hz-138",
    "baseWeight": 0.3221,
    "sink_m": 0.08,
    "flow_m2": 135.533,
    "slope_deg": 0.795,
    "relative_m": 0.218
   }
  },
  {
   "type": "Feature",
   "id": "hz-139",
   "geometry": {
    "type": "Point",
    "coordinates": [
     139.760535,
     35.678093
    ]
   },
   "properties": {
    "id": "hz-139",
    "baseWeight": 0.3214,
    "sink_m": 0.01,
    "flow_m2": 466550.406,
    "slope_deg": 0.668,
    "relative_m": 0.81
   }
  },
  {
   "type": "Feature",
   "id": "hz-140",
   "geometry": {
    "type": "Point",
    "coordinates": [
     139.76989,
     35.67893
    ]
   },
   "properties": {
    "id": "hz-140",
    "baseWeight": 0.3203,
    "sink_m": 0.11,
    "flow_m2": 1641.457,
    "slope_deg": 0.668,
    "relative_m": 0.202
   }
  },
  {
   "type": "Feature",
   "id": "hz-141",
   "geometry": {
    "type": "Point",
    "coordinates": [
     139.761307,
     35.673875
    ]
   },
   "properties": {
    "id": "hz-141",
    "baseWeight": 0.3203,
    "sink_m": 0.05,
    "flow_m2": 722.844,
    "slope_deg": 0.825,
    "relative_m": 0.1
   }
  },
  {
   "type": "Feature",
   "id": "hz-142",
   "geometry": {
    "type": "Point",
    "coordinates": [
     139.769118,
     35.681126
    ]
   },
   "properties": {
    "id": "hz-142",
    "baseWeight": 0.3181,
    "sink_m": 0.05,
    "flow_m2": 617.429,
    "slope_deg": 0.209,
    "relative_m": 0.059
   }
  },
  {
   "type": "Feature",
   "id": "hz-143",
   "geometry": {
    "type": "Point",
    "coordinates": [
     139.772294,
     35.677187
    ]
   },
   "properties": {
    "id": "hz-143",
    "baseWeight": 0.3177,
    "sink_m": 0.12,
    "flow_m2": 10797.477,
    "slope_deg": 0.266,
    "relative_m": 0.237
   }
  },
  {
   "type": "Feature",
   "id": "hz-144",
   "geometry": {
    "type": "Point",
    "coordinates": [
     139.757144,
     35.679278
    ]
   },
   "properties": {
    "id": "hz-144",
    "baseWeight": 0.3171,
    "sink_m": 0.27,
    "flow_m2": 135.533,
    "slope_deg": 2.475,
    "relative_m": 0.486
   }
  },
  {
   "type": "Feature",
   "id": "hz-145",
   "geometry": {
    "type": "Point",
    "coordinates": [
     139.775212,
     35.674607
    ]
   },
   "properties": {
    "id": "hz-145",
    "baseWeight": 0.3165,
    "sink_m": 0.14,
    "flow_m2": 15059.243,
    "slope_deg": 0.376,
    "relative_m": 0.2
   }
  },
  {
   "type": "Feature",
   "id": "hz-146",
   "geometry": {
    "type": "Point",
    "coordinates": [
     139.763796,
     35.671923
    ]
   },
   "properties": {
    "id": "hz-146",
    "baseWeight": 0.3165,
    "sink_m": 0.26,
    "flow_m2": 5511.683,
    "slope_deg": 0.295,
    "relative_m": 0.308
   }
  },
  {
   "type": "Feature",
   "id": "hz-147",
   "geometry": {
    "type": "Point",
    "coordinates": [
     139.757016,
     35.676908
    ]
   },
   "properties": {
    "id": "hz-147",
    "baseWeight": 0.3164,
    "sink_m": 0.0,
    "flow_m2": 15.059,
    "slope_deg": 0.074,
    "relative_m": 0.702
   }
  },
  {
   "type": "Feature",
   "id": "hz-148",
   "geometry": {
    "type": "Point",
    "coordinates": [
     139.758132,
     35.670702
    ]
   },
   "properties": {
    "id": "hz-148",
    "baseWeight": 0.3159,
    "sink_m": 0.15,
    "flow_m2": 150.592,
    "slope_deg": 0.99,
    "relative_m": 0.35
   }
  },
  {
   "type": "Feature",
   "id": "hz-149",
   "geometry": {
    "type": "Point",
    "coordinates": [
     139.775856,
     35.674154
    ]
   },
   "properties": {
    "id": "hz-149",
    "baseWeight": 0.3152,
    "sink_m": 0.06,
    "flow_m2": 617.429,
    "slope_deg": 0.522,
    "relative_m": 0.186
   }
  },
  {
   "type": "Feature",
   "id": "hz-150",
   "geometry": {
    "type": "Point",
    "coordinates": [
     139.760921,
     35.686982
    ]
   },
   "properties": {
    "id": "hz-150",
    "baseWeight": 0.3148,
    "sink_m": 0.0,
    "flow_m2": 143665.178,
    "slope_deg": 0.266,
    "relative_m": 1.224
   }
  },
  {
   "type": "Feature",
   "id": "hz-151",
   "geometry": {
    "type": "Point",
    "coordinates": [
     139.769762,
     35.673491
    ]
   },
   "properties": {
    "id": "hz-151",
    "baseWeight": 0.3147,
    "sink_m": 0.07,
    "flow_m2": 210302.328,
    "slope_deg": 0.398,
    "relative_m": 0.131
   }
  },
  {
   "type": "Feature",
   "id": "hz-152",
   "geometry": {
    "type": "Point",
    "coordinates": [
     139.773366,
     35.679244
    ]
   },
   "properties": {
    "id": "hz-152",
    "baseWeight": 0.3142,
    "sink_m": 0.16,
    "flow_m2": 843.318,
    "slope_deg": 1.27,
    "relative_m": 0.235
   }
  },
  {
   "type": "Feature",
   "id": "hz-153",
   "geometry": {
    "type": "Point",
    "coordinates": [
     139.775212,
     35.670946
    ]
   },
   "properties": {
    "id": "hz-153",
    "baseWeight": 0.3137,
    "sink_m": 0.18,
    "flow_m2": 391.54,
    "slope_deg": 0.631,
    "relative_m": 0.201
   }
  },
  {
   "type": "Feature",
   "id": "hz-154",
   "geometry": {
    "type": "Point",
    "coordinates": [
     139.768045,
     35.686285
    ]
   },
   "properties": {
    "id": "hz-154",
    "baseWeight": 0.3137,
    "sink_m": 0.02,
    "flow_m2": 90.355,
    "slope_deg": 0.562,
    "relative_m": 0.303
   }
  },
  {
   "type": "Feature",
   "id": "hz-155",
   "geometry": {
    "type": "Point",
    "coordinates": [
     139.771135,
     35.68137
    ]
   },
   "properties": {
    "id": "hz-155",
    "baseWeight": 0.3128,
    "sink_m": 0.07,
    "flow_m2": 90.355,
    "slope_deg": 0.898,
    "relative_m": 0.214
   }
  },
  {
   "type": "Feature",
   "id": "hz-156",
   "geometry": {
    "type": "Point",
    "coordinates": [
     139.77195,
     35.684019
    ]
   },
   "properties": {
    "id": "hz-156",
    "baseWeight": 0.3127,
    "sink_m": 0.14,
    "flow_m2": 496.955,
    "slope_deg": 0.517,
    "relative_m": 0.24
   }
  },
  {
   "type": "Feature",
   "id": "hz-157",
   "geometry": {
    "type": "Point",
    "coordinates": [
     139.759161,
     35.674956
    ]
   },
   "properties": {
    "id": "hz-157",
    "baseWeight": 0.3112,
    "sink_m": 0.1,
    "flow_m2": 180.711,
    "slope_deg": 0.864,
    "relative_m": 0.226
   }
  },
  {
   "type": "Feature",
   "id": "hz-158",
   "geometry": {
    "type": "Point",
    "coordinates": [
     139.758732,
     35.670493
    ]
   },
   "properties": {
    "id": "hz-158",
    "baseWeight": 0.3092,
    "sink_m": 0.21,
    "flow_m2": 135.533,
    "slope_deg": 5.978,
    "relative_m": 0.395
   }
  },
  {
   "type": "Feature",
   "id": "hz-159",
   "geometry": {
    "type": "Point",
    "coordinates": [
     139.764183,
     35.68395
    ]
   },
   "properties": {
    "id": "hz-159",
    "baseWeight": 0.3092,
    "sink_m": 0.06,
    "flow_m2": 68082.837,
    "slope_deg": 1.222,
    "relative_m": 0.243
   }
  },
  {
   "type": "Feature",
   "id": "hz-160",
   "geometry": {
    "type": "Point",
    "coordinates": [
     139.757488,
     35.67635
    ]
   },
   "properties": {
    "id": "hz-160",
    "baseWeight": 0.3088,
    "sink_m": 0.01,
    "flow_m2": 3960.581,
    "slope_deg": 0.209,
    "relative_m": 0.826
   }
  },
  {
   "type": "Feature",
   "id": "hz-161",
   "geometry": {
    "type": "Point",
    "coordinates": [
     139.757874,
     35.673143
    ]
   },
   "properties": {
    "id": "hz-161",
    "baseWeight": 0.3081,
    "sink_m": 0.1,
    "flow_m2": 135.533,
    "slope_deg": 0.33,
    "relative_m": 0.164
   }
  },
  {
   "type": "Feature",
   "id": "hz-162",
   "geometry": {
    "type": "Point",
    "coordinates": [
     139.760234,
     35.68618
    ]
   },
   "properties": {
    "id": "hz-162",
    "baseWeight": 0.3063,
    "sink_m": 0.0,
    "flow_m2": 75.296,
    "slope_deg": 0.577,
    "relative_m": 0.634
   }
  },
  {
   "type": "Feature",
   "id": "hz-163",
   "geometry": {
    "type": "Point",
    "coordinates": [
     139.771907,
     35.671435
    ]
   },
   "properties": {
    "id": "hz-163",
    "baseWeight": 0.3056,
    "sink_m": 0.02,
    "flow_m2": 8011.517,
    "slope_deg": 2.504,
    "relative_m": 1.578
   }
  },
  {
   "type": "Feature",
   "id": "hz-164",
   "geometry": {
    "type": "Point",
    "coordinates": [
     139.763153,
     35.675723
    ]
   },
   "properties": {
    "id": "hz-164",
    "baseWeight": 0.3047,
    "sink_m": 0.11,
    "flow_m2": 4954.491,
    "slope_deg": 0.76,
    "relative_m": 0.142
   }
  },
  {
   "type": "Feature",
   "id": "hz-165",
   "geometry": {
    "type": "Point",
    "coordinates": [
     139.759376,
     35.678581
    ]
   },
   "properties": {
    "id": "hz-165",
    "baseWeight": 0.3047,
    "sink_m": 0.02,
    "flow_m2": 406.6,
    "slope_deg": 1.704,
    "relative_m": 0.125
   }
  },
  {
   "type": "Feature",
   "id": "hz-166",
   "geometry": {
    "type": "Point",
    "coordinates": [
     139.76723,
     35.683113
    ]
   },
   "properties": {
    "id": "hz-166",
    "baseWeight": 0.3044,
    "sink_m": 0.18,
    "flow_m2": 421.659,
    "slope_deg": 0.522,
    "relative_m": 0.19
   }
  },
  {
   "type": "Feature",
   "id": "hz-167",
   "geometry": {
    "type": "Point",
    "coordinates": [
     139.763539,
     35.674572
    ]
   },
   "properties": {
    "id": "hz-167",
    "baseWeight": 0.3036,
    "sink_m": 0.05,
    "flow_m2": 1641.457,
    "slope_deg": 0.495,
    "relative_m": 0.044
   }
  },
  {
   "type": "Feature",
   "id": "hz-168",
   "geometry": {
    "type": "Point",
    "coordinates": [
     139.7668,
     35.674572
    ]
   },
   "properties": {
    "id": "hz-168",
    "baseWeight": 0.302,
    "sink_m": 0.01,
    "flow_m2": 31232.87,
    "slope_deg": 0.842,
    "relative_m": 0.008
   }
  },
  {
   "type": "Feature",
   "id": "hz-169",
   "geometry": {
    "type": "Point",
    "coordinates": [
     139.759977,
     35.675165
    ]
   },
   "properties": {
    "id": "hz-169",
    "baseWeight": 0.3016,
    "sink_m": 0.16,
    "flow_m2": 135.533,
    "slope_deg": 0.376,
    "relative_m": 0.255
   }
  },
  {
   "type": "Feature",
   "id": "hz-170",
   "geometry": {
    "type": "Point",
    "coordinates": [
     139.768302,
     35.672655
    ]
   },
   "properties": {
    "id": "hz-170",
    "baseWeight": 0.3006,
    "sink_m": 0.03,
    "flow_m2": 12469.053,
    "slope_deg": 0.985,
    "relative_m": 0.077
   }
  }
 ]
}